NORAD_CAT_ID,OBJECT_NAME,OBJECT_TYPE,EPOCH,MEAN_MOTION,ECCENTRICITY,INCLINATION,RA_OF_ASC_NODE,ARG_OF_PERICENTER,MEAN_ANOMALY,BSTAR,MEAN_MOTION_DOT,MEAN_MOTION_DDOT,TLE_LINE0,TLE_LINE1,TLE_LINE2,SEMIMAJOR_AXIS,PERIOD,APOGEE,PERIGEE,DECAYED
56806.0,STARLINK-6072,PAYLOAD,2024-06-05 06:56:35,14.98331446,0.0002853,70.0001,124.075,266.6758,93.4075,-4.8797e-06,-1.51e-06,0.0,0 STARLINK-6072,1 56806U 23078AR  24157.28929587 -.00000151  00000-0 -48797-5 0  9993,2 56806  70.0001 124.0750 0002853 266.6758  93.4075 14.98331446 57443,6950.188,96.107,574.036,570.071,0.0
56806.0,STARLINK-6072,PAYLOAD,2024-06-05 21:21:47,14.98330026,0.0002797,70.0001,122.56,266.3617,93.7222,-6.8084e-05,-9.05e-06,0.0,0 STARLINK-6072,1 56806U 23078AR  24157.89013823 -.00000905  00000-0 -68084-4 0  9994,2 56806  70.0001 122.5600 0002797 266.3617  93.7222 14.98330026 57538,6950.193,96.107,574.002,570.114,0.0
56806.0,STARLINK-6072,PAYLOAD,2024-06-06 03:46:20,14.9832944,0.0002811,70.0003,121.8867,266.011,94.0728,-7.0934e-05,-9.39e-06,0.0,0 STARLINK-6072,1 56806U 23078AR  24158.15717854 -.00000939  00000-0 -70934-4 0  9993,2 56806  70.0003 121.8867 0002811 266.0110  94.0728 14.98329440 57835,6950.195,96.107,574.013,570.106,0.0
56806.0,STARLINK-6072,PAYLOAD,2024-06-06 06:58:36,14.98330132,0.0002803,70.0003,121.5501,266.1274,93.9565,-5.9696e-05,-8.05e-06,0.0,0 STARLINK-6072,1 56806U 23078AR  24158.29069782 -.00000805  00000-0 -59696-4 0  9992,2 56806  70.0003 121.5501 0002803 266.1274  93.9565 14.98330132 57590,6950.192,96.107,574.006,570.109,0.0
56806.0,STARLINK-6072,PAYLOAD,2024-06-06 14:59:16,14.9833292,0.0002975,69.9999,120.7082,270.8012,89.2806,-7.3119e-05,-9.65e-06,0.0,0 STARLINK-6072,1 56806U 23078AR  24158.62449593 -.00000965  00000-0 -73119-4 0  9994,2 56806  69.9999 120.7082 0002975 270.8012  89.2806 14.98332920 57647,6950.184,96.107,574.117,569.981,0.0
56806.0,STARLINK-6072,PAYLOAD,2024-06-07 15:01:17,14.98330393,0.000304,69.9999,118.1827,266.1838,93.8973,-8.0229e-06,-1.89e-06,0.0,0 STARLINK-6072,1 56806U 23078AR  24159.62589629 -.00000189  00000-0 -80229-5 0  9999,2 56806  69.9999 118.1827 0003040 266.1838  93.8973 14.98330393 58057,6950.192,96.107,574.17,569.944,0.0
56806.0,STARLINK-6072,PAYLOAD,2024-06-07 23:01:57,14.98328128,0.0003105,69.9998,117.341,269.56,90.5204,6.6607e-05,7.02e-06,0.0,0 STARLINK-6072,1 56806U 23078AR  24159.95969596  .00000702  00000-0  66607-4 0  9992,2 56806  69.9998 117.3410 0003105 269.5600  90.5204 14.98328128 57841,6950.199,96.107,574.222,569.906,0.0
56806.0,STARLINK-6072,PAYLOAD,2024-06-08 07:02:37,14.98337499,0.0003064,69.9999,116.4998,270.284,89.7968,0.00010297,1.136e-05,0.0,0 STARLINK-6072,1 56806U 23078AR  24160.29348869  .00001136  00000-0  10297-3 0  9990,2 56806  69.9999 116.4998 0003064 270.2840  89.7968 14.98337499 58155,6950.17,96.107,574.164,569.905,0.0
56806.0,STARLINK-6072,PAYLOAD,2024-06-09 03:52:23,14.9832787,0.0002477,70.001,114.3133,272.3034,87.7841,-3.9315e-05,-5.62e-06,0.0,0 STARLINK-6072,1 56806U 23078AR  24161.16138087 -.00000562  00000-0 -39315-4 0  9993,2 56806  70.0010 114.3133 0002477 272.3034  87.7841 14.98327870 58289,6950.199,96.107,573.786,570.343,0.0
56806.0,STARLINK-6072,PAYLOAD,2024-06-09 07:04:39,14.9832925,0.0002484,70.001,113.9763,272.2853,87.8022,-2.4648e-05,-3.87e-06,0.0,0 STARLINK-6072,1 56806U 23078AR  24161.29489956 -.00000387  00000-0 -24648-4 0  9999,2 56806  70.0010 113.9763 0002484 272.2853  87.8022 14.98329250 58049,6950.195,96.107,573.787,570.334,0.0
56806.0,STARLINK-6072,PAYLOAD,2024-06-09 23:06:00,14.98324684,0.0002613,70.001,112.2931,270.7218,89.3642,3.373e-05,3.09e-06,0.0,0 STARLINK-6072,1 56806U 23078AR  24161.96250054  .00000309  00000-0  33730-4 0  9992,2 56806  70.0010 112.2931 0002613 270.7218  89.3642 14.98324684 58142,6950.209,96.107,573.89,570.258,0.0
56806.0,STARLINK-6072,PAYLOAD,2024-06-10 03:54:24,14.98329538,0.0002776,70.001,111.7883,274.8128,85.2714,5.4989e-06,-2.7e-07,0.0,0 STARLINK-6072,1 56806U 23078AR  24162.16277809 -.00000027  00000-0  54989-5 0  9990,2 56806  70.0010 111.7883 0002776 274.8128  85.2714 14.98329538 58437,6950.194,96.107,573.989,570.13,0.0
56806.0,STARLINK-6072,PAYLOAD,2024-06-10 13:31:11,14.98355855,0.0002758,70.0009,110.778,273.2073,86.877,-0.00046629,-5.656e-05,0.0,0 STARLINK-6072,1 56806U 23078AR  24162.56333101 -.00005656  00000-0 -46629-3 0  9996,2 56806  70.0009 110.7780 0002758 273.2073  86.8770 14.98355855 58230,6950.113,96.105,573.895,570.061,0.0
56806.0,STARLINK-6072,PAYLOAD,2024-06-10 23:08:00,14.98329535,0.0002573,70.0006,109.7678,270.0716,90.0148,2.2317e-05,1.73e-06,0.0,0 STARLINK-6072,1 56806U 23078AR  24162.96389722  .00000173  00000-0  22317-4 0  9996,2 56806  70.0006 109.7678 0002573 270.0716  90.0148 14.98329535 58293,6950.194,96.107,573.848,570.271,0.0
56806.0,STARLINK-6072,PAYLOAD,2024-06-11 03:56:24,14.98330636,0.0002563,70.0006,109.2632,268.0008,92.0858,4.2824e-05,4.18e-06,0.0,0 STARLINK-6072,1 56806U 23078AR  24163.16417577  .00000418  00000-0  42824-4 0  9996,2 56806  70.0006 109.2632 0002563 268.0008  92.0858 14.98330636 58584,6950.191,96.107,573.837,570.275,0.0
56806.0,STARLINK-6072,PAYLOAD,2024-06-11 13:33:13,14.98326137,0.0002796,70.0009,108.253,270.0308,90.053,-2.1035e-05,-3.44e-06,0.0,0 STARLINK-6072,1 56806U 23078AR  24163.56473994 -.00000344  00000-0 -21035-4 0  9996,2 56806  70.0009 108.2530 0002796 270.0308  90.0530 14.98326137 58381,6950.205,96.107,574.013,570.127,0.0
56806.0,STARLINK-6072,PAYLOAD,2024-06-12 03:58:26,14.9832308,0.0002947,70.0006,106.7389,273.0695,87.0127,-3.2728e-05,-4.83e-06,0.0,0 STARLINK-6072,1 56806U 23078AR  24164.16558427 -.00000483  00000-0 -32728-4 0  9993,2 56806  70.0006 106.7389 0002947 273.0695  87.0127 14.98323080 58734,6950.214,96.107,574.128,570.031,0.0
56806.0,STARLINK-6072,PAYLOAD,2024-06-12 05:34:34,14.98323181,0.0002793,70.0006,106.5704,269.9121,90.1718,-2.8629e-05,-4.34e-06,0.0,0 STARLINK-6072,1 56806U 23078AR  24164.23234427 -.00000434  00000-0 -28629-4 0  9993,2 56806  70.0006 106.5704 0002793 269.9121  90.1718 14.98323181 58485,6950.214,96.107,574.02,570.138,0.0
56806.0,STARLINK-6072,PAYLOAD,2024-06-12 13:35:14,14.98329474,0.0002885,70.0002,105.7281,266.295,93.7879,-4.3717e-05,-6.15e-06,0.0,0 STARLINK-6072,1 56806U 23078AR  24164.56614040 -.00000615  00000-0 -43717-4 0  9998,2 56806  70.0002 105.7281 0002885 266.2950  93.7879 14.98329474 58796,6950.195,96.107,574.065,570.054,0.0
56806.0,STARLINK-6072,PAYLOAD,2024-06-12 21:35:53,14.9834809,0.0002937,70.0007,104.8861,269.5998,90.4825,0.00018774,2.149e-05,0.0,0 STARLINK-6072,1 56806U 23078AR  24164.89992020  .00002149  00000-0  18774-3 0  9997,2 56806  70.0007 104.8861 0002937 269.5998  90.4825 14.98348090 58588,6950.137,96.106,574.043,569.961,0.0
56806.0,STARLINK-6072,PAYLOAD,2024-06-13 04:00:23,14.98370613,0.0002875,70.0002,104.2126,260.9558,99.1276,0.00038083,4.459e-05,0.0,0 STARLINK-6072,1 56806U 23078AR  24165.16693550  .00004459  00000-0  38083-3 0  9995,2 56806  70.0002 104.2126 0002875 260.9558  99.1276 14.98370613 58884,6950.067,96.104,573.93,569.934,0.0
56806.0,STARLINK-6072,PAYLOAD,2024-06-13 13:37:12,14.98347136,0.0002575,70.0001,103.201,273.1765,86.9099,0.0001456,1.645e-05,0.0,0 STARLINK-6072,1 56806U 23078AR  24165.56751108  .00001645  00000-0  14560-3 0  9991,2 56806  70.0001 103.2010 0002575 273.1765  86.9099 14.98347136 58686,6950.14,96.106,573.795,570.215,0.0
56806.0,STARLINK-6072,PAYLOAD,2024-06-13 21:37:55,14.98315183,0.0003001,70.0003,102.3619,272.5731,87.5084,-0.00010267,-1.317e-05,0.0,0 STARLINK-6072,1 56806U 23078AR  24165.90133595 -.00001317  00000-0 -10267-3 0  9991,2 56806  70.0003 102.3619 0003001 272.5731  87.5084 14.98315183 58738,6950.239,96.108,574.189,570.018,0.0
56806.0,STARLINK-6072,PAYLOAD,2024-06-14 13:39:16,14.98319888,0.0002936,70.0007,100.6779,272.1082,87.9741,-0.00013668,-1.723e-05,0.0,0 STARLINK-6072,1 56806U 23078AR  24166.56893695 -.00001723  00000-0 -13668-3 0  9997,2 56806  70.0007 100.6779 0002936 272.1082  87.9741 14.98319888 58832,6950.224,96.108,574.13,570.049,0.0
56806.0,STARLINK-6072,PAYLOAD,2024-06-14 21:39:56,14.98330524,0.000298,70.001,99.8364,272.5147,87.5671,-0.00034853,-4.249e-05,0.0,0 STARLINK-6072,1 56806U 23078AR  24166.90273657 -.00004249  00000-0 -34853-3 0  9990,2 56806  70.0010  99.8364 0002980 272.5147  87.5671 14.98330524 58883,6950.191,96.107,574.127,569.985,0.0
56806.0,STARLINK-6072,PAYLOAD,2024-06-15 05:40:36,14.98340726,0.000289,70.0008,98.9948,265.3472,94.7357,-0.00041273,-5.015e-05,0.0,0 STARLINK-6072,1 56806U 23078AR  24167.23653097 -.00005015  00000-0 -41273-3 0  9993,2 56806  70.0008  98.9948 0002890 265.3472  94.7357 14.98340726 58931,6950.16,96.106,574.033,570.016,0.0
56806.0,STARLINK-6072,PAYLOAD,2024-06-15 20:05:48,14.98318676,0.000295,70.0007,97.4801,272.7945,87.2876,0.00013221,1.484e-05,0.0,0 STARLINK-6072,1 56806U 23078AR  24167.83736945  .00001484  00000-0  13221-3 0  9999,2 56806  70.0007  97.4801 0002950 272.7945  87.2876 14.98318676 59029,6950.228,96.108,574.143,570.043,0.0
56806.0,STARLINK-6072,PAYLOAD,2024-06-16 12:07:09,14.98333882,0.0003074,70.0006,95.7969,274.6676,85.4132,-8.6882e-05,-1.13e-05,0.0,0 STARLINK-6072,1 56806U 23078AR  24168.50496779 -.00001130  00000-0 -86882-4 0  9996,2 56806  70.0006  95.7969 0003074 274.6676  85.4132 14.98333882 59126,6950.181,96.107,574.182,569.909,0.0
56806.0,STARLINK-6072,PAYLOAD,2024-06-16 21:43:58,14.98320155,0.0002621,70.0014,94.7875,270.5337,89.5522,8.5612e-05,9.28e-06,0.0,0 STARLINK-6072,1 56806U 23078AR  24168.90553619  .00000928  00000-0  85612-4 0  9999,2 56806  70.0014  94.7875 0002621 270.5337  89.5522 14.98320155 59189,6950.223,96.108,573.91,570.267,0.0
56806.0,STARLINK-6072,PAYLOAD,2024-06-17 20:09:51,14.98333193,0.000269,70.0011,92.4311,270.2164,89.8687,-1.6886e-05,-2.94e-06,0.0,0 STARLINK-6072,1 56806U 23078AR  24169.84017423 -.00000294  00000-0 -16886-4 0  9996,2 56806  70.0011  92.4311 0002690 270.2164  89.8687 14.98333193 59582,6950.183,96.107,573.918,570.178,0.0
